OBJECT_NAME,OBJECT_ID,EPOCH,MEAN_MOTION,ECCENTRICITY,INCLINATION,RA_OF_ASC_NODE,ARG_OF_PERICENTER,MEAN_ANOMALY,EPHEMERIS_TYPE,CLASSIFICATION_TYPE,NORAD_CAT_ID,ELEMENT_SET_NO,REV_AT_EPOCH,BSTAR,MEAN_MOTION_DOT,MEAN_MOTION_DDOT
IRIDIUM 33,1997-051C,2024-01-20T11:13:39.444960,14.34232044,.0006596,86.3887,358.4949,328.7121,31.3681,0,U,24946,999,37909,.22124E-3,.64E-5,0
IRIDIUM 33 DEB,1997-051L,2024-01-20T10:02:20.656896,14.40347459,.0008996,86.4041,353.1582,284.6497,75.3705,0,U,33773,999,78371,.65828E-3,.2107E-4,0
IRIDIUM 33 DEB,1997-051N,2024-01-20T10:06:53.233344,14.37644419,.0013257,86.3681,344.0750,291.3798,191.7425,0,U,33775,999,78179,.10381E-2,.3138E-4,0
IRIDIUM 33 DEB,1997-051P,2024-01-20T12:24:08.948736,14.35764919,.0012918,86.4059,10.7815,313.2220,167.1988,0,U,33776,999,78140,.65987E-3,.1928E-4,0
IRIDIUM 33 DEB,1997-051Q,2024-01-20T10:05:20.314464,14.46806446,.0013609,86.3842,334.0289,71.5410,288.7271,0,U,33777,999,78492,.1718E-2,.6248E-4,0
IRIDIUM 33 DEB,1997-051T,2024-01-20T09:09:47.551104,14.38292403,.0009777,86.3450,326.8684,298.6837,179.3473,0,U,33850,999,78186,.10136E-2,.3103E-4,0
IRIDIUM 33 DEB,1997-051W,2024-01-20T18:26:10.110048,13.94133957,.0220341,86.0008,291.8256,191.8887,224.8785,0,U,33853,999,75698,.13198E-2,.2156E-4,0
IRIDIUM 33 DEB,1997-051X,2024-01-20T18:33:58.902624,15.43594738,.0018505,86.1782,155.0635,284.8020,75.1185,0,U,33854,999,79551,.12888E-1,.629501E-2,0
IRIDIUM 33 DEB,1997-051AC,2024-01-20T07:57:35.773056,14.55981273,.0039535,86.3362,318.5851,238.7194,121.0139,0,U,33859,999,78296,.34588E-2,.1541E-3,0
IRIDIUM 33 DEB,1997-051AD,2024-01-20T07:59:54.401856,14.52047042,.0012664,86.3911,329.6545,145.3701,334.9603,0,U,33860,999,78621,.21849E-2,.8865E-4,0
IRIDIUM 33 DEB,1997-051AF,2024-01-20T09:31:15.299904,14.54132439,.0057797,86.4142,338.8357,270.2594,205.1206,0,U,33862,999,78709,.3058E-2,.13247E-3,0
IRIDIUM 33 DEB,1997-051AH,2024-01-20T14:18:19.773216,14.67172498,.001028,86.2687,242.3806,32.1722,24.5627,0,U,33864,999,78810,.34126E-2,.19263E-3,0
IRIDIUM 33 DEB,1997-051AK,2024-01-20T12:24:10.968768,14.18683048,.0112553,86.3032,24.2872,211.2238,272.1359,0,U,33866,999,76971,.25932E-2,.5745E-4,0
IRIDIUM 33 DEB,1997-051AL,2024-01-20T18:50:33.412416,14.69258973,.0019219,86.4176,309.0107,340.8634,19.1857,0,U,33867,999,79180,.2849E-2,.16888E-3,0
IRIDIUM 33 DEB,1997-051AN,2024-01-20T08:50:35.076192,15.00198009,.0012683,86.2948,339.5668,252.0152,107.9698,0,U,33869,999,78208,.1551E-1,.199385E-2,0
IRIDIUM 33 DEB,1997-051AP,2024-01-20T09:37:36.365376,14.39308043,.0020525,86.3795,353.3159,318.6105,159.1383,0,U,33870,999,78154,.154E-2,.4811E-4,0
IRIDIUM 33 DEB,1997-051AS,2024-01-20T05:11:27.433536,14.86629604,.001258,86.3526,279.4646,294.0681,65.9227,0,U,33873,999,79093,.53888E-2,.48174E-3,0
IRIDIUM 33 DEB,1997-051AT,2024-01-20T08:12:46.429056,14.49814376,.0044397,86.2821,320.4762,135.5339,340.7897,0,U,33874,999,77808,.49326E-2,.1932E-3,0
IRIDIUM 33 DEB,1997-051AU,2024-01-20T03:17:48.021504,15.21897386,.0010443,86.3808,258.8031,356.0417,4.0743,0,U,33875,999,79805,.66768E-2,.15512E-2,0
IRIDIUM 33 DEB,1997-051BA,2024-01-20T12:30:28.111680,14.35970981,.0063347,86.3841,42.4995,307.2368,171.6344,0,U,33881,999,77493,.56417E-2,.16801E-3,0
IRIDIUM 33 DEB,1997-051BD,2024-01-20T08:16:49.349568,14.56068469,.0012296,86.3804,316.9932,167.9017,319.1895,0,U,33884,999,78697,.27206E-2,.12027E-3,0
IRIDIUM 33 DEB,1997-051BF,2024-01-20T11:42:48.585312,14.34480642,.0014242,86.3851,358.1160,358.3923,119.9968,0,U,33886,999,78122,.43208E-3,.1238E-4,0
IRIDIUM 33 DEB,1997-051BG,2024-01-20T07:00:06.914880,14.35928867,.0006585,86.3057,301.3334,5.7522,121.2659,0,U,33887,999,78223,.29845E-3,.885E-5,0
IRIDIUM 33 DEB,1997-051BH,2024-01-20T07:02:56.336640,14.71728127,.002433,86.3123,309.5023,212.4909,147.4811,0,U,33888,999,78286,.74807E-2,.47159E-3,0
IRIDIUM 33 DEB,1997-051BM,2024-01-20T16:19:13.845504,14.90968664,.0005379,86.3384,272.8561,260.2143,99.8477,0,U,33952,999,79088,.52284E-2,.51991E-3,0
IRIDIUM 33 DEB,1997-051BN,2024-01-20T09:18:22.752576,14.44660300,.0019285,86.3929,351.4036,248.8106,241.8543,0,U,33953,999,78269,.16494E-2,.5745E-4,0
IRIDIUM 33 DEB,1997-051BU,2024-01-19T22:19:27.428448,14.56715356,.0068939,86.3563,0.7172,70.7899,290.0752,0,U,33959,999,77863,.85701E-2,.39749E-3,0
IRIDIUM 33 DEB,1997-051BV,2024-01-20T15:25:05.480256,14.57686803,.0002385,86.2676,247.2614,311.1244,102.6889,0,U,33960,999,78712,.19907E-2,.9106E-4,0
IRIDIUM 33 DEB,1997-051CA,2024-01-20T04:17:13.155072,14.71333529,.0009735,86.3587,299.9387,342.0887,17.9985,0,U,33965,999,78828,.48003E-2,.29808E-3,0
IRIDIUM 33 DEB,1997-051CB,2024-01-20T08:51:17.661888,14.44169227,.000839,86.3965,341.7479,12.6277,104.7197,0,U,33966,999,78429,.11204E-2,.3862E-4,0
IRIDIUM 33 DEB,1997-051CE,2024-01-20T07:50:45.080160,14.43362415,.0005101,86.3492,317.2072,251.9493,108.1152,0,U,34071,999,78324,.12012E-2,.407E-4,0
IRIDIUM 33 DEB,1997-051CL,2024-01-20T10:53:40.185312,14.48190963,.0011101,86.3949,351.9936,184.5278,302.1762,0,U,34077,999,78256,.23515E-2,.8795E-4,0
IRIDIUM 33 DEB,1997-051CN,2024-01-20T07:19:34.025952,14.58236615,.0007953,86.3857,316.8515,175.9363,346.4342,0,U,34079,999,78800,.22837E-2,.10574E-3,0
IRIDIUM 33 DEB,1997-051CV,2024-01-20T20:28:05.846880,14.62665629,.0010711,86.3757,340.8918,201.6399,187.8575,0,U,34086,999,78412,.55451E-2,.28338E-3,0
IRIDIUM 33 DEB,1997-051CX,2024-01-20T09:19:39.141408,14.56550915,.0013292,86.4002,338.6852,105.8771,13.5025,0,U,34088,999,78556,.32257E-2,.14412E-3,0
IRIDIUM 33 DEB,1997-051DA,2024-01-20T11:24:33.773760,14.43759239,.0068194,86.3629,11.8859,145.6393,214.9248,0,U,34091,999,77765,.28573E-2,.1002E-3,0
IRIDIUM 33 DEB,1997-051DG,2024-01-20T06:52:49.379232,14.25356155,.009386,86.2048,304.6101,79.9532,281.2233,0,U,34097,999,77221,.21319E-2,.5279E-4,0
IRIDIUM 33 DEB,1997-051DL,2024-01-20T11:13:42.065472,15.50994418,.0036539,86.3250,10.7836,120.2822,240.2062,0,U,34101,999,77854,.3476E-1,.2338575E-1,0
IRIDIUM 33 DEB,1997-051DM,2024-01-20T14:07:11.498592,14.47853066,.0083662,86.3680,48.3049,359.7237,118.4876,0,U,34102,999,77331,.61002E-2,.23673E-3,0
IRIDIUM 33 DEB,1997-051DR,2024-01-20T14:16:36.583104,14.67974651,.0012411,86.3563,291.8422,134.7787,303.4056,0,U,34106,999,78874,.3331E-2,.19152E-3,0
IRIDIUM 33 DEB,1997-051DS,2024-01-20T19:00:02.816064,14.74888256,.0007017,86.3695,300.0763,142.3637,271.4260,0,U,34107,999,78969,.58773E-2,.39646E-3,0
IRIDIUM 33 DEB,1997-051DY,2024-01-20T16:02:33.487296,14.33796433,.0059496,86.2152,278.4579,198.4977,161.4057,0,U,34145,999,77699,.14445E-2,.4114E-4,0
IRIDIUM 33 DEB,1997-051DZ,2024-01-20T19:01:08.150880,14.40975916,.0034266,86.2861,293.3282,0.7363,60.0419,0,U,34146,999,78122,.1613E-2,.5236E-4,0
IRIDIUM 33 DEB,1997-051EN,2024-01-20T09:54:53.660448,14.35129783,.0031445,86.3540,342.5199,38.1941,322.1475,0,U,34159,999,78017,.88865E-3,.2569E-4,0
IRIDIUM 33 DEB,1997-051ES,2024-01-20T12:41:41.052768,14.41925484,.0019734,86.3299,302.2039,272.5485,213.5900,0,U,34350,999,78305,.74813E-3,.2474E-4,0
IRIDIUM 33 DEB,1997-051ET,2024-01-20T19:07:48.276192,15.65993092,.0025092,86.3735,297.9352,109.7997,250.5979,0,U,34351,999,79305,.16172E-1,.1870655E-1,0
IRIDIUM 33 DEB,1997-051FA,2024-01-20T15:36:30.488832,14.76063902,.0022068,86.3163,273.7471,329.4757,58.2928,0,U,34358,999,78753,.48339E-2,.33603E-3,0
IRIDIUM 33 DEB,1997-051FJ,2024-01-20T09:55:26.575392,14.43087518,.0020096,86.3761,347.6087,295.8704,190.9303,0,U,34366,999,78158,.20809E-2,.7015E-4,0
IRIDIUM 33 DEB,1997-051FT,2024-01-20T15:36:48.506688,14.15394744,.0107177,86.4302,101.3199,161.6901,355.2265,0,U,34375,999,77010,.82325E-3,.1715E-4,0
IRIDIUM 33 DEB,1997-051FU,2024-01-20T12:30:25.126560,14.44637529,.0035158,86.3054,312.9534,348.0662,11.9702,0,U,34376,999,77950,.32806E-2,.11472E-3,0
IRIDIUM 33 DEB,1997-051GB,2024-01-20T08:15:59.819040,14.62374924,.0018944,86.4086,321.8461,33.2471,97.0244,0,U,34486,999,78763,.28544E-2,.14501E-3,0
IRIDIUM 33 DEB,1997-051GC,2024-01-20T06:41:45.783168,14.41237091,.0029535,86.3456,309.9164,257.6102,255.5882,0,U,34487,999,78267,.44409E-3,.146E-4,0
IRIDIUM 33 DEB,1997-051GD,2024-01-20T03:34:23.635488,14.67979865,.0019816,86.3408,267.8030,320.0485,39.9270,0,U,34488,999,78925,.25984E-2,.14964E-3,0
IRIDIUM 33 DEB,1997-051GE,2024-01-20T10:53:33.056448,14.80246145,.0041037,86.3941,24.1761,358.4739,1.6350,0,U,34489,999,77904,.11151E-1,.87029E-3,0
IRIDIUM 33 DEB,1997-051GH,2024-01-20T01:55:55.284672,14.00237796,.0267843,86.4832,248.0092,269.9447,246.0643,0,U,34492,999,75278,.48082E-2,.9709E-4,0
IRIDIUM 33 DEB,1997-051GN,2024-01-20T08:26:08.308320,14.22947150,.0088406,86.2825,346.9873,43.1778,108.7330,0,U,34497,999,77020,.158E-2,.3717E-4,0
IRIDIUM 33 DEB,1997-051GU,2024-01-20T15:00:31.543776,14.75938829,.0015808,86.3088,235.4706,96.8034,263.4985,0,U,34503,999,79128,.25039E-2,.17294E-3,0
IRIDIUM 33 DEB,1997-051GZ,2024-01-20T12:08:44.536992,14.29855853,.0070628,86.3740,33.9008,270.8002,88.5099,0,U,34508,999,77386,.18821E-2,.499E-4,0
IRIDIUM 33 DEB,1997-051HC,2024-01-20T08:40:50.005632,14.73855941,.0028362,86.3781,326.8205,45.2122,84.6325,0,U,34511,999,78500,.59992E-2,.39748E-3,0
IRIDIUM 33 DEB,1997-051HN,2024-01-20T08:17:55.477536,14.50064923,.0008113,86.3870,331.9651,76.5015,283.7093,0,U,34521,999,78391,.19449E-2,.7564E-4,0
IRIDIUM 33 DEB,1997-051HR,2024-01-20T18:32:15.791136,14.82769552,.0026652,86.3288,291.7801,33.5941,326.6964,0,U,34524,999,78622,.71059E-2,.58204E-3,0
IRIDIUM 33 DEB,1997-051HS,2024-01-20T20:30:04.753152,14.39377895,.0003594,86.3769,341.2117,176.6854,245.4942,0,U,34525,999,78176,.8103E-3,.2538E-4,0
IRIDIUM 33 DEB,1997-051HW,2024-01-20T19:57:16.935264,14.39004900,.0005013,86.3675,329.8854,340.1799,19.9204,0,U,34529,999,78242,.47164E-3,.1474E-4,0
IRIDIUM 33 DEB,1997-051JF,2024-01-20T18:29:55.714272,14.35358037,.0043716,86.2789,306.8315,73.9393,315.8484,0,U,34538,999,77888,.14011E-2,.408E-4,0
IRIDIUM 33 DEB,1997-051JH,2024-01-20T16:35:10.162176,14.58897676,.00247,86.3195,259.1133,31.8942,31.3080,0,U,34540,999,78916,.12518E-2,.5909E-4,0
